{"_source":{"name":"Município de Tomar / Médio Tejo (MuniSIG) — Área de Intervenção do POACB","url":"https://geoportal.mediotejo.pt/arcgis/rest/services/CMTOMAR/OrdenamentoZonasProtecaoSalvaguarda2020/MapServer/4","service":"ArcGIS REST (GeoJSON)","retrieved_at":"2026-07-05T21:03:26Z","note":"Zona de proteção da Albufeira de Castelo de Bode (Plano de Ordenamento da Albufeira)."},"features":[{"type":"Feature","properties":{"designacao":"Área de Intervenção do POACB (Albufeira de Castelo de Bode)","servidao":"POACB"},"geometry":{"type":"Polygon","coordinates":[[[-8.254419,39.652703],[-8.254646,39.652727],[-8.254662,39.652687],[-8.254733,39.652684],[-8.254856,39.652699],[-8.254891,39.652561],[-8.254905,39.652547],[-8.254966,39.652563],[-8.255024,39.65257],[-8.255116,39.652577],[-8.255186,39.652582],[-8.255265,39.652577],[-8.255351,39.652562],[-8.255411,39.652548],[-8.255456,39.652535],[-8.255499,39.65252],[-8.255548,39.652502],[-8.255593,39.652485],[-8.255594,39.652485],[-8.255529,39.652369],[-8.255521,39.652355],[-8.255356,39.651807],[-8.255184,39.651425],[-8.254985,39.65108],[-8.254766,39.650771],[-8.25446,39.650416],[-8.254055,39.650037],[-8.254692,39.649822],[-8.25506,39.649663],[-8.25548,39.649455],[-8.255863,39.649282],[-8.256244,39.64908],[-8.256771,39.648736],[-8.257088,39.648484],[-8.257284,39.648308],[-8.257749,39.647806],[-8.257982,39.647556],[-8.258237,39.647237],[-8.258416,39.64697],[-8.258572,39.646695],[-8.258715,39.646383],[-8.258808,39.646129],[-8.258936,39.645704],[-8.258997,39.645395],[-8.259028,39.645128],[-8.259036,39.644772],[-8.259029,39.644629],[-8.259021,39.644458],[-8.258984,39.644176],[-8.258929,39.643916],[-8.258804,39.643515],[-8.258784,39.643472],[-8.258562,39.642994],[-8.258755,39.642734],[-8.258924,39.642465],[-8.259077,39.642173],[-8.259241,39.641764],[-8.259332,39.641446],[-8.259383,39.641191],[-8.259426,39.640763],[-8.259425,39.640483],[-8.259359,39.639939],[-8.259296,39.639678],[-8.259178,39.639326],[-8.259046,39.639028],[-8.258883,39.638731],[-8.258772,39.638562],[-8.258701,39.638453],[-8.258477,39.638159],[-8.258096,39.637694],[-8.258414,39.637318],[-8.258722,39.636847],[-8.258963,39.636338],[-8.259061,39.636022],[-8.259071,39.636013],[-8.259086,39.635959],[-8.259109,39.635868],[-8.259139,39.635731],[-8.259164,39.635593],[-8.259174,39.635523],[-8.25919,39.635383],[-8.259196,39.635313],[-8.259202,39.635208],[-8.259205,39.635091],[-8.259197,39.635095],[-8.259202,39.634891],[-8.259183,39.634737],[-8.259152,39.634484],[-8.25916,39.634487],[-8.259148,39.634419],[-8.259135,39.634349],[-8.259104,39.634211],[-8.259068,39.634074],[-8.25904,39.633983],[-8.25899,39.633836],[-8.259357,39.633542],[-8.259436,39.633476],[-8.259564,39.633361],[-8.259781,39.633271],[-8.259901,39.633219],[-8.260033,39.633155],[-8.260079,39.633135],[-8.260104,39.633121],[-8.260139,39.633105],[-8.260138,39.633103],[-8.260596,39.632852],[-8.261081,39.632518],[-8.26147,39.632189],[-8.261817,39.631827],[-8.262117,39.631439],[-8.262357,39.631045],[-8.262576,39.630567],[-8.262918,39.630313],[-8.263293,39.629988],[-8.263945,39.630133],[-8.26441,39.630201],[-8.26478,39.630236],[-8.265319,39.630588],[-8.265912,39.630889],[-8.266528,39.631127],[-8.267151,39.6313],[-8.267789,39.631417],[-8.26852,39.631481],[-8.269236,39.631475],[-8.269859,39.631413],[-8.270304,39.631355],[-8.270658,39.631288],[-8.271345,39.631104],[-8.271569,39.631024],[-8.272009,39.630869],[-8.272044,39.630853],[-8.272318,39.630732],[-8.272733,39.630516],[-8.273363,39.630122],[-8.273697,39.629869],[-8.273946,39.629652],[-8.274188,39.629409],[-8.274418,39.629142],[-8.27466,39.628807],[-8.274857,39.628496],[-8.275033,39.628163],[-8.275143,39.627903],[-8.275305,39.627352],[-8.275376,39.626797],[-8.275358,39.626238],[-8.27531,39.625935],[-8.275237,39.625639],[-8.275119,39.625265],[-8.274997,39.624972],[-8.274712,39.624459],[-8.274492,39.624153],[-8.274297,39.623924],[-8.274092,39.623634],[-8.273996,39.623499],[-8.273768,39.623215],[-8.273543,39.622974],[-8.273213,39.622673],[-8.2729,39.62243],[-8.272668,39.622277],[-8.272517,39.622178],[-8.272114,39.621955],[-8.271662,39.621743],[-8.271426,39.62146],[-8.271182,39.621204],[-8.270887,39.620937],[-8.270604,39.620714],[-8.270485,39.620378],[-8.270315,39.620015],[-8.270127,39.619697],[-8.269928,39.619409],[-8.270353,39.619424],[-8.270759,39.619414],[-8.271118,39.619386],[-8.271591,39.619324],[-8.271996,39.619245],[-8.272445,39.619128],[-8.272876,39.618986],[-8.273233,39.618845],[-8.273237,39.61916],[-8.273265,39.619484],[-8.273325,39.619813],[-8.273434,39.620214],[-8.273499,39.620529],[-8.2736,39.620876],[-8.273751,39.621252],[-8.273959,39.621648],[-8.274229,39.622045],[-8.274463,39.622327],[-8.274713,39.622585],[-8.274989,39.62283],[-8.275368,39.623116],[-8.275696,39.623327],[-8.276,39.623495],[-8.276216,39.623598],[-8.276386,39.623679],[-8.276812,39.623846],[-8.277251,39.623986],[-8.277549,39.624063],[-8.278109,39.624177],[-8.278658,39.624302],[-8.279325,39.624532],[-8.279869,39.624668],[-8.280415,39.62476],[-8.281068,39.624837],[-8.281606,39.624863],[-8.282163,39.624849],[-8.28264,39.624804],[-8.283416,39.624683],[-8.28403,39.62463],[-8.284694,39.624519],[-8.285367,39.62434],[-8.285909,39.62414],[-8.286383,39.623919],[-8.286965,39.623573],[-8.287479,39.62318],[-8.287899,39.62277],[-8.288207,39.62289],[-8.288366,39.622951],[-8.28879,39.623085],[-8.289207,39.623188],[-8.289768,39.623286],[-8.289817,39.623291],[-8.29026,39.623336],[-8.290691,39.623353],[-8.291135,39.623344],[-8.291456,39.623318],[-8.291656,39.623301],[-8.292135,39.623228],[-8.292595,39.623128],[-8.293024,39.623007],[-8.293525,39.622827],[-8.293963,39.62263],[-8.294336,39.622429],[-8.294755,39.622158],[-8.295083,39.621907],[-8.295348,39.62167],[-8.295689,39.621309],[-8.295938,39.620987],[-8.296129,39.620689],[-8.29632,39.620312],[-8.29639,39.620137],[-8.296458,39.619965],[-8.296565,39.619575],[-8.296629,39.619186],[-8.296652,39.618857],[-8.296638,39.618462],[-8.296587,39.618105],[-8.296492,39.617732],[-8.296328,39.617299],[-8.296157,39.616964],[-8.295926,39.616602],[-8.29575,39.616373],[-8.295477,39.616067],[-8.295192,39.615791],[-8.295737,39.615407],[-8.296156,39.615035],[-8.296564,39.614573],[-8.296867,39.614124],[-8.297121,39.613606],[-8.297287,39.613086],[-8.297369,39.612583],[-8.297375,39.612032],[-8.297314,39.611578],[-8.297162,39.611039],[-8.296938,39.610542],[-8.296629,39.610053],[-8.296552,39.609961],[-8.296236,39.609585],[-8.295791,39.609175],[-8.295401,39.608885],[-8.294711,39.608431],[-8.294075,39.608063],[-8.293607,39.607847],[-8.293079,39.607655],[-8.292614,39.607524],[-8.292134,39.607424],[-8.291818,39.607379],[-8.291817,39.607377],[-8.291707,39.607363],[-8.291625,39.607354],[-8.291461,39.607339],[-8.291338,39.607331],[-8.291255,39.607326],[-8.291091,39.607319],[-8.290845,39.607316],[-8.290682,39.607318],[-8.290573,39.607321],[-8.290357,39.607333],[-8.290117,39.607353],[-8.289958,39.60737],[-8.289853,39.607384],[-8.289646,39.607415],[-8.289492,39.607443],[-8.289391,39.607462],[-8.289191,39.607506],[-8.289092,39.607529],[-8.288898,39.60758],[-8.288709,39.607636],[-8.288585,39.607675],[-8.288393,39.607739],[-8.28834,39.607579],[-8.288307,39.607488],[-8.288252,39.607354],[-8.288191,39.60722],[-8.288158,39.607153],[-8.288089,39.607022],[-8.288053,39.606956],[-8.287995,39.606859],[-8.287956,39.606796],[-8.287872,39.606669],[-8.287783,39.606544],[-8.28778,39.60654],[-8.28778,39.60654],[-8.287721,39.606463],[-8.287591,39.606303],[-8.287489,39.606186],[-8.287417,39.60611],[-8.28735,39.606041],[-8.287349,39.60604],[-8.28727,39.605961],[-8.287193,39.605888],[-8.287035,39.605748],[-8.28687,39.605614],[-8.286757,39.605528],[-8.28668,39.605472],[-8.28666,39.605458],[-8.286524,39.605364],[-8.286441,39.605309],[-8.286234,39.605176],[-8.286294,39.605032],[-8.286344,39.604902],[-8.286389,39.60477],[-8.286409,39.604704],[-8.286447,39.60457],[-8.286463,39.604502],[-8.286486,39.604401],[-8.286511,39.604265],[-8.286521,39.604197],[-8.286535,39.604094],[-8.286549,39.60394],[-8.286555,39.603837],[-8.286557,39.603768],[-8.286558,39.603631],[-8.286556,39.603562],[-8.286548,39.603425],[-8.286535,39.603289],[-8.286523,39.603198],[-8.286493,39.603018],[-8.286479,39.602951],[-8.286447,39.602818],[-8.286411,39.602686],[-8.286384,39.602599],[-8.286324,39.602427],[-8.286273,39.6023],[-8.286237,39.602217],[-8.286158,39.602052],[-8.286116,39.601972],[-8.286027,39.601813],[-8.285872,39.601564],[-8.285804,39.601265],[-8.285788,39.601202],[-8.285752,39.601076],[-8.285732,39.601012],[-8.2857,39.600918],[-8.285653,39.600791],[-8.285628,39.600728],[-8.285587,39.600634],[-8.285521,39.600493],[-8.285456,39.600368],[-8.285422,39.600306],[-8.285368,39.600214],[-8.285283,39.600077],[-8.285191,39.599942],[-8.285142,39.599875],[-8.285022,39.599718],[-8.284958,39.599641],[-8.284859,39.599527],[-8.284755,39.599416],[-8.284701,39.599361],[-8.28459,39.599253],[-8.284534,39.5992],[-8.284446,39.599122],[-8.284311,39.599008],[-8.284218,39.598934],[-8.284155,39.598885],[-8.284026,39.59879],[-8.283928,39.598722],[-8.283861,39.598677],[-8.283724,39.59859],[-8.283655,39.598548],[-8.283515,39.598466],[-8.283371,39.598387],[-8.283275,39.598337],[-8.283078,39.598242],[-8.283004,39.598208],[-8.282853,39.598143],[-8.282701,39.598082],[-8.282599,39.598043],[-8.282393,39.59797],[-8.282237,39.59792],[-8.282133,39.597889],[-8.281924,39.597832],[-8.28182,39.597806],[-8.28161,39.597758],[-8.281401,39.597718],[-8.281012,39.597652],[-8.280825,39.597502],[-8.280821,39.597506],[-8.280568,39.597311],[-8.280157,39.597051],[-8.279705,39.596815],[-8.279153,39.596585],[-8.278662,39.596427],[-8.278113,39.596296],[-8.277546,39.596208],[-8.277042,39.596166],[-8.276511,39.596159],[-8.276032,39.596185],[-8.275469,39.596255],[-8.274896,39.596373],[-8.27438,39.596522],[-8.273845,39.596725],[-8.273428,39.596923],[-8.27279,39.597292],[-8.272103,39.597173],[-8.271371,39.597112],[-8.270872,39.596766],[-8.270557,39.596424],[-8.270268,39.596016],[-8.269956,39.595661],[-8.269662,39.595383],[-8.26928,39.595079],[-8.268793,39.594765],[-8.268432,39.594572],[-8.267946,39.594357],[-8.267363,39.594158],[-8.26676,39.59401],[-8.266199,39.593921],[-8.265657,39.593875],[-8.265091,39.59387],[-8.264509,39.59391],[-8.263955,39.59399],[-8.263603,39.594064],[-8.263006,39.594231],[-8.26248,39.594061],[-8.261848,39.593915],[-8.261842,39.59391],[-8.261687,39.593878],[-8.261587,39.593808],[-8.26145,39.593716],[-8.26138,39.593672],[-8.26124,39.593586],[-8.261097,39.593505],[-8.261001,39.593453],[-8.260807,39.593354],[-8.260734,39.593319],[-8.260587,39.593252],[-8.260439,39.593189],[-8.26034,39.593149],[-8.260142,39.593075],[-8.259993,39.593024],[-8.259894,39.592992],[-8.259697,39.592934],[-8.259598,39.592907],[-8.259402,39.592858],[-8.259207,39.592815],[-8.258914,39.592757],[-8.258487,39.592698],[-8.258647,39.592598],[-8.258782,39.592508],[-8.25887,39.592447],[-8.258952,39.592386],[-8.259302,39.592252],[-8.259449,39.592192],[-8.259521,39.59216],[-8.25957,39.592138],[-8.259569,39.592137],[-8.259603,39.59212],[-8.260048,39.591899],[-8.260491,39.591625],[-8.260961,39.591267],[-8.261146,39.59109],[-8.261149,39.591098],[-8.261161,39.591086],[-8.261265,39.590985],[-8.261364,39.590881],[-8.261428,39.590811],[-8.261551,39.590668],[-8.261638,39.59056],[-8.261693,39.590486],[-8.261799,39.590338],[-8.261848,39.590263],[-8.261942,39.590112],[-8.262027,39.589959],[-8.26208,39.589857],[-8.262113,39.589788],[-8.262158,39.589688],[-8.262323,39.589451],[-8.262428,39.589285],[-8.26245,39.589247],[-8.26245,39.589244],[-8.262535,39.589087],[-8.262544,39.589077],[-8.262603,39.58896],[-8.262678,39.588903],[-8.262736,39.588857],[-8.26285,39.588762],[-8.262871,39.588744],[-8.262916,39.588699],[-8.263013,39.588617],[-8.263085,39.58854],[-8.26309,39.588544],[-8.263118,39.588517],[-8.263185,39.588449],[-8.263314,39.588311],[-8.263451,39.588152],[-8.263537,39.588045],[-8.263591,39.587972],[-8.263668,39.587864],[-8.26366,39.587857],[-8.263814,39.58764],[-8.263976,39.58732],[-8.264007,39.587279],[-8.264015,39.587263],[-8.264082,39.58711],[-8.264122,39.587009],[-8.264147,39.586941],[-8.264193,39.586806],[-8.264235,39.586672],[-8.264282,39.586509],[-8.264303,39.586426],[-8.264321,39.586347],[-8.264319,39.586327],[-8.264318,39.586312],[-8.264387,39.585924],[-8.264389,39.585887],[-8.26439,39.585885],[-8.264394,39.585829],[-8.2644,39.585711],[-8.264398,39.58571],[-8.264402,39.585638],[-8.264391,39.585327],[-8.264336,39.584984],[-8.264347,39.584986],[-8.26434,39.584947],[-8.264301,39.584767],[-8.264311,39.58452],[-8.264312,39.584456],[-8.264313,39.584338],[-8.264351,39.584205],[-8.264369,39.584133],[-8.264394,39.584024],[-8.264424,39.58386],[-8.264447,39.583694],[-8.26445,39.583663],[-8.264544,39.583577],[-8.264631,39.583623],[-8.264707,39.583663],[-8.264862,39.583738],[-8.26494,39.583774],[-8.265099,39.583844],[-8.265259,39.583909],[-8.265428,39.583973],[-8.265567,39.584054],[-8.265714,39.584135],[-8.265837,39.584198],[-8.265838,39.584194],[-8.265945,39.584251],[-8.266575,39.584513],[-8.267203,39.584703],[-8.267803,39.584828],[-8.268394,39.5849],[-8.269005,39.584925],[-8.269729,39.58489],[-8.270308,39.584811],[-8.270944,39.584668],[-8.271526,39.584481],[-8.272167,39.584204],[-8.272688,39.58391],[-8.273156,39.58358],[-8.273617,39.583171],[-8.273997,39.582739],[-8.274252,39.582372],[-8.274978,39.582316],[-8.275613,39.582208],[-8.276024,39.582098],[-8.27628,39.582029],[-8.276902,39.581794],[-8.277259,39.581944],[-8.277765,39.582119],[-8.278475,39.58235],[-8.27904,39.582482],[-8.279407,39.582543],[-8.279772,39.582584],[-8.280385,39.582613],[-8.280409,39.582614],[-8.280803,39.582605],[-8.281171,39.582578],[-8.281737,39.582501],[-8.282023,39.582444],[-8.282482,39.582328],[-8.282607,39.582285],[-8.283052,39.582135],[-8.283387,39.581994],[-8.283696,39.581843],[-8.284183,39.581559],[-8.284688,39.581189],[-8.285075,39.580833],[-8.285395,39.580466],[-8.285439,39.580415],[-8.285773,39.579912],[-8.285854,39.579742],[-8.286001,39.579436],[-8.286161,39.578928],[-8.286549,39.578812],[-8.286637,39.578786],[-8.287044,39.578632],[-8.287447,39.578867],[-8.287832,39.579122],[-8.288082,39.579261],[-8.28821,39.579332],[-8.288582,39.579507],[-8.289006,39.579672],[-8.289437,39.579808],[-8.289894,39.57992],[-8.290224,39.579981],[-8.290661,39.580038],[-8.291124,39.58007],[-8.291509,39.580075],[-8.292051,39.580049],[-8.292484,39.579999],[-8.292871,39.579933],[-8.293148,39.579867],[-8.293377,39.579812],[-8.293667,39.579722],[-8.293786,39.579685],[-8.294206,39.579524],[-8.294606,39.579339],[-8.295142,39.579027],[-8.295308,39.57892],[-8.295667,39.578647],[-8.295954,39.57839],[-8.29621,39.578123],[-8.296435,39.57785],[-8.296639,39.577554],[-8.296651,39.577537],[-8.296847,39.577188],[-8.296998,39.576841],[-8.297115,39.576478],[-8.297182,39.576169],[-8.297224,39.575828],[-8.297233,39.575502],[-8.29722,39.5753],[-8.297213,39.575194],[-8.297157,39.5748],[-8.297303,39.57482],[-8.297668,39.57487],[-8.298367,39.574909],[-8.298229,39.575385],[-8.298158,39.575892],[-8.298159,39.576379],[-8.298222,39.576833],[-8.298341,39.57727],[-8.298523,39.577712],[-8.298743,39.578106],[-8.2989,39.578337],[-8.299123,39.578618],[-8.299513,39.579022],[-8.299612,39.579103],[-8.299918,39.579358],[-8.300074,39.579463],[-8.300396,39.57968],[-8.300847,39.579925],[-8.301389,39.580161],[-8.302007,39.580365],[-8.302694,39.580519],[-8.303269,39.580595],[-8.303774,39.580685],[-8.304372,39.580744],[-8.304507,39.580746],[-8.305041,39.580754],[-8.305559,39.580721],[-8.305569,39.580716],[-8.30612,39.580644],[-8.306621,39.580536],[-8.307114,39.580391],[-8.307151,39.58038],[-8.3076,39.58021],[-8.308063,39.580587],[-8.308365,39.580792],[-8.308648,39.58096],[-8.309055,39.581167],[-8.309324,39.581284],[-8.309633,39.581393],[-8.309959,39.581508],[-8.310156,39.581814],[-8.310411,39.582142],[-8.310708,39.582458],[-8.310727,39.582475],[-8.311002,39.582722],[-8.311374,39.583006],[-8.311651,39.583186],[-8.312082,39.583426],[-8.312424,39.583587],[-8.312825,39.583744],[-8.313214,39.58387],[-8.313697,39.583993],[-8.314166,39.584078],[-8.314594,39.584129],[-8.315104,39.584157],[-8.315503,39.584155],[-8.315848,39.584132],[-8.316033,39.584119],[-8.316531,39.584051],[-8.317064,39.583938],[-8.317505,39.583811],[-8.317875,39.58368],[-8.317899,39.58367],[-8.318134,39.58357],[-8.318239,39.583526],[-8.318646,39.58332],[-8.319001,39.583107],[-8.319305,39.582899],[-8.319655,39.582633],[-8.319927,39.582391],[-8.320201,39.582106],[-8.320468,39.581777],[-8.320657,39.581496],[-8.320848,39.58115],[-8.320935,39.580947],[-8.320995,39.580806],[-8.321093,39.580506],[-8.321413,39.580125],[-8.321669,39.579745],[-8.321889,39.57932],[-8.322012,39.579006],[-8.322131,39.578567],[-8.322192,39.578141],[-8.3222,39.577696],[-8.322164,39.57733],[-8.322084,39.576948],[-8.321954,39.576555],[-8.321742,39.576101],[-8.321491,39.575699],[-8.321257,39.575397],[-8.320862,39.574982],[-8.320507,39.57468],[-8.320049,39.574362],[-8.319817,39.573879],[-8.319627,39.573574],[-8.319472,39.573361],[-8.319324,39.573067],[-8.319316,39.573052],[-8.31911,39.572721],[-8.318945,39.572498],[-8.318663,39.572173],[-8.318388,39.571906],[-8.318046,39.571623],[-8.317805,39.571455],[-8.317679,39.571367],[-8.317389,39.571192],[-8.317257,39.570961],[-8.317085,39.570661],[-8.316874,39.570372],[-8.316647,39.570099],[-8.316304,39.569509],[-8.316019,39.569136],[-8.315803,39.568898],[-8.315506,39.568617],[-8.315214,39.56838],[-8.314764,39.56808],[-8.314639,39.567996],[-8.31464,39.567585],[-8.31462,39.567346],[-8.314558,39.566986],[-8.314457,39.566626],[-8.314334,39.566309],[-8.314172,39.565983],[-8.313964,39.565647],[-8.313749,39.565361],[-8.313509,39.565088],[-8.313246,39.564832],[-8.312946,39.564581],[-8.312505,39.564272],[-8.312423,39.564224],[-8.312147,39.564063],[-8.311812,39.563895],[-8.311405,39.563721],[-8.310921,39.563541],[-8.310553,39.563156],[-8.310441,39.562966],[-8.31029,39.562687],[-8.310096,39.56239],[-8.309871,39.562103],[-8.309844,39.562073],[-8.309652,39.561861],[-8.309428,39.561652],[-8.309321,39.561552],[-8.309065,39.561346],[-8.308559,39.561003],[-8.308306,39.560505],[-8.308055,39.560107],[-8.307761,39.559736],[-8.307458,39.559421],[-8.307102,39.559114],[-8.306697,39.558817],[-8.306352,39.558599],[-8.305766,39.558282],[-8.305555,39.557909],[-8.305454,39.557729],[-8.305167,39.557341],[-8.305675,39.557054],[-8.305879,39.556916],[-8.305891,39.556908],[-8.306064,39.556791],[-8.306088,39.556772],[-8.306109,39.556757],[-8.306127,39.556743],[-8.306252,39.556645],[-8.306254,39.556643],[-8.30629,39.55661],[-8.306332,39.556575],[-8.306393,39.556526],[-8.306401,39.55652],[-8.306514,39.556417],[-8.30657,39.556365],[-8.306769,39.556167],[-8.307061,39.556307],[-8.307166,39.556353],[-8.307326,39.55642],[-8.307365,39.556436],[-8.307391,39.556444],[-8.307434,39.556463],[-8.308075,39.556672],[-8.308757,39.556828],[-8.309496,39.556928],[-8.309917,39.556952],[-8.310373,39.556951],[-8.311036,39.556899],[-8.311668,39.556794],[-8.312037,39.556705],[-8.312364,39.556609],[-8.312686,39.556496],[-8.31305,39.556345],[-8.313666,39.556026],[-8.314201,39.555666],[-8.314672,39.555263],[-8.314706,39.555226],[-8.314963,39.554955],[-8.315047,39.554855],[-8.315136,39.554742],[-8.315193,39.554667],[-8.315299,39.554514],[-8.315337,39.554456],[-8.315409,39.55434],[-8.315415,39.554329],[-8.315476,39.554223],[-8.315518,39.554145],[-8.315596,39.553988],[-8.315649,39.553871],[-8.315681,39.553792],[-8.315707,39.553723],[-8.315707,39.553723],[-8.315725,39.553676],[-8.315725,39.553676],[-8.31574,39.553635],[-8.315767,39.553557],[-8.315839,39.553318],[-8.316212,39.553312],[-8.316297,39.553309],[-8.316424,39.553303],[-8.316595,39.553292],[-8.31668,39.553284],[-8.316808,39.553272],[-8.317001,39.553248],[-8.317172,39.553223],[-8.317258,39.553209],[-8.317386,39.553186],[-8.317577,39.553147],[-8.317767,39.553103],[-8.317861,39.553079],[-8.318028,39.553033],[-8.318111,39.553009],[-8.318235,39.55297],[-8.318537,39.552868],[-8.318932,39.553038],[-8.319013,39.55307],[-8.319136,39.553118],[-8.319306,39.553179],[-8.319392,39.553208],[-8.319523,39.55325],[-8.319724,39.553309],[-8.319907,39.553356],[-8.319999,39.553379],[-8.32014,39.55341],[-8.320355,39.553452],[-8.320573,39.553488],[-8.320684,39.553503],[-8.320882,39.553527],[-8.320982,39.553537],[-8.321133,39.553549],[-8.321361,39.553562],[-8.321591,39.553568],[-8.321707,39.553569],[-8.321938,39.553564],[-8.322054,39.553559],[-8.322228,39.553548],[-8.322434,39.55353],[-8.322537,39.553519],[-8.322691,39.553499],[-8.32292,39.553464],[-8.323034,39.553444],[-8.32326,39.553398],[-8.323483,39.553345],[-8.32363,39.553306],[-8.323727,39.553279],[-8.323797,39.553257],[-8.323798,39.553262],[-8.323919,39.55322],[-8.324061,39.553172],[-8.324154,39.553139],[-8.324337,39.553068],[-8.324428,39.553032],[-8.324605,39.552955],[-8.324778,39.552873],[-8.324891,39.552817],[-8.324964,39.552778],[-8.325109,39.552699],[-8.325287,39.552594],[-8.325401,39.552522],[-8.325476,39.552473],[-8.325621,39.552373],[-8.325726,39.552296],[-8.325794,39.552244],[-8.325926,39.552138],[-8.32599,39.552084],[-8.326113,39.551974],[-8.326231,39.551863],[-8.326306,39.551788],[-8.326449,39.551637],[-8.326524,39.55155],[-8.326573,39.551492],[-8.326666,39.551376],[-8.32671,39.551318],[-8.326794,39.551201],[-8.326873,39.551084],[-8.326922,39.551006],[-8.327014,39.55085],[-8.327106,39.550674],[-8.327161,39.550558],[-8.327195,39.550481],[-8.327257,39.550328],[-8.327298,39.550214],[-8.327322,39.550139],[-8.327366,39.549989],[-8.327385,39.549915],[-8.327418,39.54977],[-8.327445,39.549626],[-8.327458,39.549532],[-8.327478,39.549347],[-8.327485,39.549263],[-8.327494,39.549108],[-8.327496,39.549031],[-8.327496,39.548915],[-8.327488,39.54874],[-8.327474,39.548585],[-8.327464,39.548508],[-8.327447,39.548392],[-8.327433,39.548315],[-8.3274,39.548162],[-8.32736,39.54801],[-8.327329,39.547909],[-8.327315,39.547831],[-8.327278,39.54776],[-8.32726,39.54771],[-8.327128,39.547359],[-8.327096,39.547275],[-8.327038,39.547141],[-8.326992,39.547005],[-8.326956,39.546914],[-8.326878,39.546733],[-8.326821,39.546615],[-8.32678,39.546536],[-8.326693,39.546381],[-8.326634,39.546281],[-8.326599,39.546177],[-8.326531,39.546],[-8.326519,39.545971],[-8.326467,39.545849],[-8.326438,39.545788],[-8.326394,39.545697],[-8.326323,39.545562],[-8.326213,39.545373],[-8.326209,39.545249],[-8.326194,39.545043],[-8.326171,39.544829],[-8.326162,39.544761],[-8.32614,39.544624],[-8.326112,39.544488],[-8.326091,39.544398],[-8.326067,39.544312],[-8.326072,39.544186],[-8.326073,39.5441],[-8.326068,39.543928],[-8.326059,39.543814],[-8.326052,39.543737],[-8.326032,39.543586],[-8.326024,39.543532],[-8.325996,39.543378],[-8.32598,39.543301],[-8.325952,39.543186],[-8.325904,39.543015],[-8.325846,39.542844],[-8.325814,39.54276],[-8.325762,39.542634],[-8.325725,39.542551],[-8.325644,39.542386],[-8.325612,39.542325],[-8.325543,39.542204],[-8.325471,39.542085],[-8.32542,39.542007],[-8.325313,39.541853],[-8.325266,39.541789],[-8.325142,39.541627],[-8.325077,39.541548],[-8.324941,39.541393],[-8.324845,39.541292],[-8.32478,39.541226],[-8.324697,39.541147],[-8.324683,39.541005],[-8.324655,39.540815],[-8.324636,39.54072],[-8.324604,39.540579],[-8.324592,39.540534],[-8.324554,39.540564],[-8.324474,39.540632],[-8.324406,39.540681],[-8.32432,39.540723],[-8.324238,39.540748],[-8.324078,39.540785],[-8.323957,39.540789],[-8.323758,39.540771],[-8.323676,39.540766],[-8.323516,39.540772],[-8.323436,39.540798],[-8.322342,39.541368],[-8.321751,39.54152],[-8.32049,39.542049],[-8.31933,39.542672],[-8.317775,39.543266],[-8.316159,39.543907],[-8.314852,39.544377],[-8.314144,39.544594],[-8.313236,39.544725],[-8.312458,39.544788],[-8.310915,39.544728],[-8.309752,39.54471],[-8.308792,39.544772],[-8.306765,39.545018],[-8.306037,39.545103],[-8.30456,39.545297],[-8.303668,39.545471],[-8.303071,39.54565],[-8.302572,39.545837],[-8.302247,39.545956],[-8.301343,39.54628],[-8.301221,39.546327],[-8.300983,39.546467],[-8.300815,39.54662],[-8.300726,39.546748],[-8.300693,39.546796],[-8.300495,39.547149],[-8.300363,39.547325],[-8.300179,39.547483],[-8.299992,39.547618],[-8.299622,39.547795],[-8.298828,39.548185],[-8.298375,39.548401],[-8.297844,39.548759],[-8.297531,39.549003],[-8.297263,39.549285],[-8.297037,39.549653],[-8.296943,39.549871],[-8.296918,39.550098],[-8.296956,39.55037],[-8.297007,39.550528],[-8.297131,39.550858],[-8.297277,39.551118],[-8.297431,39.551549],[-8.297501,39.551954],[-8.297471,39.552116],[-8.297414,39.552476],[-8.297276,39.552839],[-8.297018,39.553255],[-8.296926,39.553376],[-8.296779,39.553576],[-8.296458,39.553968],[-8.296281,39.554196],[-8.295961,39.554695],[-8.295871,39.554887],[-8.295807,39.555088],[-8.295759,39.555504],[-8.29566,39.556685],[-8.295539,39.55819],[-8.295407,39.559845],[-8.295331,39.56004],[-8.295223,39.560191],[-8.295057,39.560341],[-8.294863,39.560464],[-8.294477,39.560688],[-8.294057,39.560874],[-8.293726,39.560981],[-8.293373,39.561089],[-8.292996,39.561248],[-8.292456,39.561511],[-8.291839,39.561878],[-8.29084,39.562502],[-8.290387,39.562776],[-8.289544,39.563214],[-8.289048,39.563479],[-8.288567,39.563655],[-8.288075,39.563826],[-8.287439,39.564052],[-8.286148,39.564702],[-8.285277,39.565146],[-8.283527,39.566567],[-8.283006,39.567018],[-8.281974,39.567673],[-8.281099,39.568378],[-8.280713,39.568628],[-8.280326,39.568845],[-8.280003,39.569066],[-8.279852,39.569183],[-8.279749,39.569304],[-8.279544,39.569475],[-8.278977,39.569902],[-8.278312,39.570376],[-8.277476,39.570935],[-8.276766,39.571377],[-8.275749,39.571996],[-8.275133,39.572292],[-8.274819,39.572435],[-8.273836,39.57267],[-8.27338,39.572735],[-8.272749,39.572782],[-8.27195,39.572769],[-8.271088,39.572709],[-8.269952,39.572565],[-8.26956,39.57248],[-8.268737,39.572253],[-8.267484,39.57193],[-8.267159,39.571847],[-8.266363,39.571705],[-8.265922,39.57164],[-8.265301,39.571614],[-8.264606,39.571613],[-8.26351,39.5717],[-8.263111,39.571806],[-8.262686,39.571998],[-8.262288,39.572304],[-8.262061,39.572655],[-8.261977,39.572902],[-8.261902,39.573652],[-8.26171,39.574183],[-8.261568,39.574441],[-8.261428,39.574592],[-8.260864,39.575178],[-8.260692,39.575356],[-8.259362,39.576505],[-8.258613,39.577008],[-8.258262,39.577219],[-8.257665,39.577486],[-8.25747,39.577598],[-8.257264,39.577753],[-8.257164,39.577851],[-8.256985,39.578133],[-8.256867,39.578628],[-8.25669,39.579089],[-8.256475,39.579497],[-8.255992,39.580182],[-8.25571,39.580547],[-8.255594,39.580737],[-8.255499,39.580985],[-8.255434,39.581441],[-8.255429,39.581671],[-8.255512,39.582035],[-8.255822,39.582752],[-8.255897,39.582925],[-8.25594,39.583274],[-8.256017,39.583628],[-8.256012,39.583849],[-8.256002,39.584216],[-8.255919,39.584625],[-8.255785,39.585004],[-8.255697,39.585126],[-8.255416,39.585404],[-8.254912,39.585804],[-8.254517,39.586094],[-8.253426,39.586888],[-8.253044,39.587191],[-8.252674,39.58746],[-8.251483,39.588376],[-8.251216,39.588576],[-8.250928,39.588773],[-8.250597,39.588952],[-8.250275,39.589115],[-8.249921,39.589267],[-8.249672,39.589384],[-8.249117,39.589693],[-8.248744,39.589969],[-8.248304,39.590386],[-8.247822,39.590785],[-8.247585,39.590948],[-8.247088,39.591268],[-8.246515,39.59156],[-8.245856,39.591811],[-8.245273,39.591953],[-8.244937,39.59203],[-8.24449,39.592073],[-8.243501,39.592124],[-8.243221,39.592144],[-8.24289,39.592142],[-8.242532,39.5922],[-8.242274,39.592214],[-8.242077,39.592306],[-8.241616,39.592595],[-8.241416,39.592794],[-8.241267,39.592974],[-8.241155,39.593316],[-8.241038,39.593807],[-8.240987,39.594215],[-8.241009,39.59453],[-8.241076,39.594869],[-8.241238,39.59544],[-8.24139,39.595838],[-8.241652,39.596327],[-8.241871,39.59658],[-8.242133,39.596844],[-8.242452,39.597051],[-8.243209,39.597575],[-8.243646,39.597823],[-8.244364,39.598151],[-8.244692,39.598316],[-8.245102,39.598564],[-8.245409,39.598826],[-8.245701,39.599154],[-8.245975,39.599398],[-8.246155,39.599535],[-8.246683,39.599887],[-8.247212,39.600195],[-8.248084,39.600597],[-8.24848,39.600768],[-8.249072,39.600946],[-8.24964,39.601078],[-8.250576,39.601266],[-8.250992,39.60133],[-8.252085,39.601421],[-8.254861,39.601535],[-8.258785,39.601643],[-8.259629,39.601658],[-8.260215,39.601697],[-8.26099,39.601804],[-8.262098,39.602012],[-8.262393,39.602084],[-8.263244,39.602282],[-8.263657,39.602413],[-8.264,39.60255],[-8.264477,39.602769],[-8.264973,39.602921],[-8.265417,39.603096],[-8.266037,39.603395],[-8.266365,39.603582],[-8.266754,39.603879],[-8.267101,39.604218],[-8.267454,39.604753],[-8.267628,39.60509],[-8.267689,39.605317],[-8.267672,39.605861],[-8.267558,39.606348],[-8.267428,39.606586],[-8.26727,39.606778],[-8.267061,39.606945],[-8.266794,39.607128],[-8.266557,39.607248],[-8.266331,39.607334],[-8.266226,39.607374],[-8.265203,39.607639],[-8.26422,39.607874],[-8.263783,39.608022],[-8.263273,39.608234],[-8.263094,39.608345],[-8.262509,39.608773],[-8.261939,39.609447],[-8.261651,39.609838],[-8.261536,39.610073],[-8.261192,39.610953],[-8.261065,39.611343],[-8.260999,39.611671],[-8.261014,39.61194],[-8.26107,39.612438],[-8.261125,39.612922],[-8.261135,39.613273],[-8.261111,39.613495],[-8.261063,39.613876],[-8.261033,39.614048],[-8.260994,39.614141],[-8.26087,39.614377],[-8.260691,39.614705],[-8.260467,39.614998],[-8.260231,39.615294],[-8.259676,39.615768],[-8.259321,39.616006],[-8.259051,39.61613],[-8.25818,39.616468],[-8.25627,39.617164],[-8.255809,39.617352],[-8.25543,39.617517],[-8.255123,39.617656],[-8.254923,39.617787],[-8.254626,39.618065],[-8.25435,39.618367],[-8.254016,39.618819],[-8.253835,39.619101],[-8.253714,39.619453],[-8.253654,39.619716],[-8.253667,39.620242],[-8.253777,39.620872],[-8.253948,39.62126],[-8.25414,39.621559],[-8.254371,39.621792],[-8.254858,39.622314],[-8.255184,39.622743],[-8.255358,39.623087],[-8.255376,39.623223],[-8.25538,39.623488],[-8.255319,39.623858],[-8.255136,39.624763],[-8.255,39.625343],[-8.254858,39.625616],[-8.2548,39.625777],[-8.254715,39.625934],[-8.2545,39.626187],[-8.254406,39.626284],[-8.254148,39.626518],[-8.253672,39.626928],[-8.25315,39.627325],[-8.252774,39.627542],[-8.252043,39.627908],[-8.250813,39.628449],[-8.250285,39.628701],[-8.24986,39.628915],[-8.249505,39.629133],[-8.249296,39.629297],[-8.248828,39.62976],[-8.248619,39.630013],[-8.248422,39.630346],[-8.248341,39.630571],[-8.248277,39.630928],[-8.248133,39.631748],[-8.24807,39.63242],[-8.248016,39.632759],[-8.24792,39.633149],[-8.247829,39.633623],[-8.24763,39.634185],[-8.247481,39.634694],[-8.247418,39.635046],[-8.247419,39.635462],[-8.247423,39.635802],[-8.247511,39.635985],[-8.247819,39.6365],[-8.247947,39.63679],[-8.248069,39.637238],[-8.248158,39.637491],[-8.248222,39.638019],[-8.248206,39.638903],[-8.248152,39.639317],[-8.248031,39.639718],[-8.247816,39.640141],[-8.247528,39.640646],[-8.247288,39.640957],[-8.246724,39.641691],[-8.246276,39.642209],[-8.245987,39.642491],[-8.245651,39.642769],[-8.245223,39.643072],[-8.245125,39.643129],[-8.244882,39.64322],[-8.244172,39.643434],[-8.243722,39.643476],[-8.243297,39.643468],[-8.242996,39.643446],[-8.242592,39.643392],[-8.242075,39.643209],[-8.241792,39.643024],[-8.241421,39.642758],[-8.240873,39.642318],[-8.240611,39.642065],[-8.240371,39.641856],[-8.240015,39.641658],[-8.239462,39.641379],[-8.239036,39.641218],[-8.238668,39.641124],[-8.238425,39.641074],[-8.23817,39.641054],[-8.237991,39.641081],[-8.237887,39.641107],[-8.237787,39.641153],[-8.237699,39.641231],[-8.237529,39.641444],[-8.237372,39.641755],[-8.237319,39.641928],[-8.23726,39.642127],[-8.237224,39.642317],[-8.237213,39.642532],[-8.237118,39.6428],[-8.237047,39.643102],[-8.236905,39.643482],[-8.236739,39.64381],[-8.236477,39.644164],[-8.236406,39.644263],[-8.236609,39.644324],[-8.237174,39.644468],[-8.237776,39.644623],[-8.239109,39.644971],[-8.239606,39.645122],[-8.239871,39.645212],[-8.239888,39.645249],[-8.239918,39.645353],[-8.240079,39.645372],[-8.240228,39.645315],[-8.240309,39.645406],[-8.240369,39.645509],[-8.240398,39.645572],[-8.240544,39.645542],[-8.24079,39.645479],[-8.240875,39.645537],[-8.240937,39.645535],[-8.241077,39.64555],[-8.241286,39.645571],[-8.241509,39.645597],[-8.241685,39.645624],[-8.241983,39.645671],[-8.242254,39.645734],[-8.242489,39.645774],[-8.242694,39.645808],[-8.242832,39.645827],[-8.242965,39.645873],[-8.243093,39.645946],[-8.243168,39.64592],[-8.243272,39.645883],[-8.243397,39.645838],[-8.243539,39.645828],[-8.243688,39.645819],[-8.243801,39.645827],[-8.243922,39.645826],[-8.244057,39.64582],[-8.24417,39.645821],[-8.244328,39.645755],[-8.244403,39.645735],[-8.244674,39.645679],[-8.24482,39.645678],[-8.244934,39.645679],[-8.245158,39.645701],[-8.245221,39.645696],[-8.245297,39.645695],[-8.245366,39.645699],[-8.245524,39.645713],[-8.245697,39.645732],[-8.245838,39.645746],[-8.245996,39.645752],[-8.246237,39.645757],[-8.246318,39.645762],[-8.246516,39.645815],[-8.246606,39.645841],[-8.246699,39.645848],[-8.246747,39.645835],[-8.246788,39.645865],[-8.24705,39.645856],[-8.247214,39.645839],[-8.247437,39.645834],[-8.247699,39.645832],[-8.248018,39.645834],[-8.248128,39.645916],[-8.248319,39.646026],[-8.248611,39.646198],[-8.248882,39.64636],[-8.249158,39.646525],[-8.249438,39.646672],[-8.25004,39.647073],[-8.250309,39.647245],[-8.250433,39.647323],[-8.250524,39.647428],[-8.250624,39.647593],[-8.250734,39.647647],[-8.250852,39.647708],[-8.251004,39.647791],[-8.251173,39.647888],[-8.251178,39.647896],[-8.251205,39.648048],[-8.250996,39.648225],[-8.251051,39.648284],[-8.251076,39.648333],[-8.251073,39.648394],[-8.251039,39.648523],[-8.251035,39.648638],[-8.251028,39.648708],[-8.251004,39.648756],[-8.250992,39.64886],[-8.250969,39.648906],[-8.250991,39.649025],[-8.250991,39.649132],[-8.251036,39.649418],[-8.251419,39.649537],[-8.25159,39.649478],[-8.251729,39.649457],[-8.251887,39.649418],[-8.252168,39.649406],[-8.252231,39.649407],[-8.252429,39.649427],[-8.252457,39.649427],[-8.25285,39.649374],[-8.252887,39.649367],[-8.252904,39.649367],[-8.252931,39.649429],[-8.252938,39.649505],[-8.252938,39.649566],[-8.252944,39.649683],[-8.252952,39.649748],[-8.252992,39.649819],[-8.253055,39.649906],[-8.253113,39.649986],[-8.253156,39.650061],[-8.253179,39.650135],[-8.253191,39.650244],[-8.253242,39.650319],[-8.253151,39.650371],[-8.252846,39.650244],[-8.252751,39.650222],[-8.252667,39.650224],[-8.2526,39.65024],[-8.252538,39.650265],[-8.252475,39.650313],[-8.252586,39.650449],[-8.252763,39.650664],[-8.252808,39.650698],[-8.252872,39.650722],[-8.252902,39.650776],[-8.252909,39.650804],[-8.252801,39.650881],[-8.25259,39.651045],[-8.252638,39.651222],[-8.252774,39.651098],[-8.252843,39.651215],[-8.252773,39.651326],[-8.252699,39.651433],[-8.252833,39.651566],[-8.252882,39.651601],[-8.253065,39.651611],[-8.253133,39.651634],[-8.25323,39.65173],[-8.253243,39.651745],[-8.25335,39.651692],[-8.25339,39.651735],[-8.253417,39.651716],[-8.253462,39.651798],[-8.253475,39.651841],[-8.25346,39.651856],[-8.253473,39.651886],[-8.253501,39.651949],[-8.253501,39.651969],[-8.253479,39.652029],[-8.253461,39.652068],[-8.253449,39.652117],[-8.253444,39.652191],[-8.253441,39.652245],[-8.253435,39.652278],[-8.253422,39.652359],[-8.253431,39.652431],[-8.253474,39.652471],[-8.253539,39.652485],[-8.253638,39.652495],[-8.253761,39.65249],[-8.254054,39.652511],[-8.254129,39.652523],[-8.254419,39.652703]]]}}],"type":"FeatureCollection"}